{
  "type": "FeatureCollection",
  "features": [
    {
      "type": "Feature",
      "properties": {
        "norad_id": 35835,
        "name": "COSMOS 2251 DEB",
        "group": "cosmos-2251-debris",
        "lat": -61.020300004393555,
        "lon": -119.05543788289832,
        "alt_km": 1060.5436308059361,
        "timestamp": "2025-12-10T14:53:37.484440+00:00",
        "meta_object_name": "COSMOS 2251 DEB",
        "meta_object_id": "1993-036ATH",
        "meta_epoch": "2025-12-08T02:26:31.163712",
        "meta_mean_motion": 13.82845446,
        "meta_eccentricity": 0.0289856,
        "meta_inclination": 74.0637,
        "meta_ra_of_asc_node": 276.2339,
        "meta_arg_of_pericenter": 58.9026,
        "meta_mean_anomaly": 304.0195,
        "meta_ephemeris_type": 0,
        "meta_classification_type": "U",
        "meta_norad_cat_id": 35835,
        "meta_element_set_no": 999,
        "meta_rev_at_epoch": 61635,
        "meta_bstar": 0.0020246404,
        "meta_mean_motion_dot": 3.026e-05,
        "meta_mean_motion_ddot": 0,
        "tle_line1": "1 35835U 93036ATH 25342.10174958  .00003026  00000+0  20246-2 0  9992",
        "tle_line2": "2 35835  74.0637 276.2339 0289856  58.9026 304.0195 13.82845446616351"
      },
      "geometry": {
        "type": "Point",
        "coordinates": [
          -119.05543788289832,
          -61.020300004393555
        ]
      }
    },
    {
      "type": "Feature",
      "properties": {
        "norad_id": 35836,
        "name": "COSMOS 2251 DEB",
        "group": "cosmos-2251-debris",
        "lat": -23.22180590218799,
        "lon": 4.108900661653596,
        "alt_km": 648.6474623193453,
        "timestamp": "2025-12-10T14:53:37.484449+00:00",
        "meta_object_name": "COSMOS 2251 DEB",
        "meta_object_id": "1993-036ATJ",
        "meta_epoch": "2025-12-08T21:09:26.726112",
        "meta_mean_motion": 14.70831317,
        "meta_eccentricity": 0.0024584,
        "meta_inclination": 74.031,
        "meta_ra_of_asc_node": 180.4275,
        "meta_arg_of_pericenter": 239.4807,
        "meta_mean_anomaly": 120.3938,
        "meta_ephemeris_type": 0,
        "meta_classification_type": "U",
        "meta_norad_cat_id": 35836,
        "meta_element_set_no": 999,
        "meta_rev_at_epoch": 63463,
        "meta_bstar": 0.0019954,
        "meta_mean_motion_dot": 0.00012243,
        "meta_mean_motion_ddot": 0,
        "tle_line1": "1 35836U 93036ATJ 25342.88155933  .00012243  00000+0  19954-2 0  9995",
        "tle_line2": "2 35836  74.0310 180.4275 0024584 239.4807 120.3938 14.70831317634638"
      },
      "geometry": {
        "type": "Point",
        "coordinates": [
          4.108900661653596,
          -23.22180590218799
        ]
      }
    },
    {
      "type": "Feature",
      "properties": {
        "norad_id": 35837,
        "name": "COSMOS 2251 DEB",
        "group": "cosmos-2251-debris",
        "lat": -50.01465307341132,
        "lon": 51.542061606277414,
        "alt_km": 1074.370047644892,
        "timestamp": "2025-12-10T14:53:37.484458+00:00",
        "meta_object_name": "COSMOS 2251 DEB",
        "meta_object_id": "1993-036ATK",
        "meta_epoch": "2025-12-09T22:01:37.127712",
        "meta_mean_motion": 13.63437069,
        "meta_eccentricity": 0.04220669,
        "meta_inclination": 73.7216,
        "meta_ra_of_asc_node": 212.3216,
        "meta_arg_of_pericenter": 133.5531,
        "meta_mean_anomaly": 246.304,
        "meta_ephemeris_type": 0,
        "meta_classification_type": "U",
        "meta_norad_cat_id": 35837,
        "meta_element_set_no": 999,
        "meta_rev_at_epoch": 57938,
        "meta_bstar": 0.0025074688,
        "meta_mean_motion_dot": 3.597e-05,
        "meta_mean_motion_ddot": 0,
        "tle_line1": "1 35837U 93036ATK 25343.91779083  .00003597  00000+0  25075-2 0  9992",
        "tle_line2": "2 35837  73.7216 212.3216 0422066 133.5531 246.3040 13.63437069579385"
      },
      "geometry": {
        "type": "Point",
        "coordinates": [
          51.542061606277414,
          -50.01465307341132
        ]
      }
    },
    {
      "type": "Feature",
      "properties": {
        "norad_id": 35839,
        "name": "COSMOS 2251 DEB",
        "group": "cosmos-2251-debris",
        "lat": -67.73812809874372,
        "lon": -168.12839234165648,
        "alt_km": 423.2225459157653,
        "timestamp": "2025-12-10T14:53:37.484467+00:00",
        "meta_object_name": "COSMOS 2251 DEB",
        "meta_object_id": "1993-036ATM",
        "meta_epoch": "2025-12-08T23:03:59.936832",
        "meta_mean_motion": 15.49155767,
        "meta_eccentricity": 0.00013013,
        "meta_inclination": 74.2066,
        "meta_ra_of_asc_node": 331.7255,
        "meta_arg_of_pericenter": 23.8266,
        "meta_mean_anomaly": 336.3008,
        "meta_ephemeris_type": 0,
        "meta_classification_type": "U",
        "meta_norad_cat_id": 35839,
        "meta_element_set_no": 999,
        "meta_rev_at_epoch": 88509,
        "meta_bstar": 0.0061753467,
        "meta_mean_motion_dot": 0.00351751,
        "meta_mean_motion_ddot": 0,
        "tle_line1": "1 35839U 93036ATM 25342.96111038  .00351751  00000+0  61753-2 0  9999",
        "tle_line2": "2 35839  74.2066 331.7255 0001301  23.8266 336.3008 15.49155767885096"
      },
      "geometry": {
        "type": "Point",
        "coordinates": [
          -168.12839234165648,
          -67.73812809874372
        ]
      }
    },
    {
      "type": "Feature",
      "properties": {
        "norad_id": 35840,
        "name": "COSMOS 2251 DEB",
        "group": "cosmos-2251-debris",
        "lat": -5.94560400465434,
        "lon": -16.17261403706802,
        "alt_km": 811.1478813739113,
        "timestamp": "2025-12-10T14:53:37.484476+00:00",
        "meta_object_name": "COSMOS 2251 DEB",
        "meta_object_id": "1993-036ATN",
        "meta_epoch": "2025-12-09T04:38:38.499360",
        "meta_mean_motion": 14.37769402,
        "meta_eccentricity": 0.0116323,
        "meta_inclination": 73.9303,
        "meta_ra_of_asc_node": 164.7511,
        "meta_arg_of_pericenter": 68.104,
        "meta_mean_anomaly": 293.2433,
        "meta_ephemeris_type": 0,
        "meta_classification_type": "U",
        "meta_norad_cat_id": 35840,
        "meta_element_set_no": 999,
        "meta_rev_at_epoch": 85240,
        "meta_bstar": 0.002118,
        "meta_mean_motion_dot": 6.875e-05,
        "meta_mean_motion_ddot": 0,
        "tle_line1": "1 35840U 93036ATN 25343.19350115  .00006875  00000+0  21180-2 0  9992",
        "tle_line2": "2 35840  73.9303 164.7511 0116323  68.1040 293.2433 14.37769402852405"
      },
      "geometry": {
        "type": "Point",
        "coordinates": [
          -16.17261403706802,
          -5.94560400465434
        ]
      }
    },
    {
      "type": "Feature",
      "properties": {
        "norad_id": 35883,
        "name": "COSMOS 2251 DEB",
        "group": "cosmos-2251-debris",
        "lat": 73.65871527898689,
        "lon": 151.70717619151586,
        "alt_km": 743.1480943663082,
        "timestamp": "2025-12-10T14:53:37.484485+00:00",
        "meta_object_name": "COSMOS 2251 DEB",
        "meta_object_id": "1993-036ATW",
        "meta_epoch": "2025-12-08T12:53:27.979296",
        "meta_mean_motion": 14.5058807,
        "meta_eccentricity": 0.00839123,
        "meta_inclination": 74.0248,
        "meta_ra_of_asc_node": 77.932,
        "meta_arg_of_pericenter": 208.211,
        "meta_mean_anomaly": 163.6192,
        "meta_ephemeris_type": 0,
        "meta_classification_type": "U",
        "meta_norad_cat_id": 35883,
        "meta_element_set_no": 999,
        "meta_rev_at_epoch": 62325,
        "meta_bstar": 0.00065719246,
        "meta_mean_motion_dot": 2.667e-05,
        "meta_mean_motion_ddot": 0,
        "tle_line1": "1 35883U 93036ATW 25342.53712939  .00002667  00000+0  65719-3 0  9994",
        "tle_line2": "2 35883  74.0248  77.9320 0083912 208.2110 163.6192 14.50588070623253"
      },
      "geometry": {
        "type": "Point",
        "coordinates": [
          151.70717619151586,
          73.65871527898689
        ]
      }
    },
    {
      "type": "Feature",
      "properties": {
        "norad_id": 35884,
        "name": "COSMOS 2251 DEB",
        "group": "cosmos-2251-debris",
        "lat": -2.6734371353261155,
        "lon": -20.92276818930222,
        "alt_km": 859.0948305939146,
        "timestamp": "2025-12-10T14:53:37.484494+00:00",
        "meta_object_name": "COSMOS 2251 DEB",
        "meta_object_id": "1993-036ATX",
        "meta_epoch": "2025-12-09T17:00:47.209536",
        "meta_mean_motion": 14.25629404,
        "meta_eccentricity": 0.01087033,
        "meta_inclination": 73.9912,
        "meta_ra_of_asc_node": 341.4952,
        "meta_arg_of_pericenter": 129.2859,
        "meta_mean_anomaly": 231.7992,
        "meta_ephemeris_type": 0,
        "meta_classification_type": "U",
        "meta_norad_cat_id": 35884,
        "meta_element_set_no": 999,
        "meta_rev_at_epoch": 22314,
        "meta_bstar": 0.001725321,
        "meta_mean_motion_dot": 4.326e-05,
        "meta_mean_motion_ddot": 0,
        "tle_line1": "1 35884U 93036ATX 25343.70887974  .00004326  00000+0  17253-2 0  9990",
        "tle_line2": "2 35884  73.9912 341.4952 0108703 129.2859 231.7992 14.25629404223146"
      },
      "geometry": {
        "type": "Point",
        "coordinates": [
          -20.92276818930222,
          -2.6734371353261155
        ]
      }
    }
  ]
}